{
  "type": "FeatureCollection",
  "features": [
    {
      "type": "Feature",
      "properties": {
        "norad_id": 34680,
        "name": "COSMOS 2251 DEB",
        "group": "cosmos-2251-debris",
        "lat": -38.303521315875024,
        "lon": 113.9356440274312,
        "alt_km": 697.6035880250338,
        "timestamp": "2025-12-14T05:42:18.857539+00:00",
        "meta_object_name": "COSMOS 2251 DEB",
        "meta_object_id": "1993-036YA",
        "meta_epoch": "2025-12-13T12:08:06.125280",
        "meta_mean_motion": 14.60640869,
        "meta_eccentricity": 0.00066608,
        "meta_inclination": 74.0428,
        "meta_ra_of_asc_node": 128.3944,
        "meta_arg_of_pericenter": 225.9095,
        "meta_mean_anomaly": 205.9692,
        "meta_ephemeris_type": 0,
        "meta_classification_type": "U",
        "meta_norad_cat_id": 34680,
        "meta_element_set_no": 999,
        "meta_rev_at_epoch": 88339,
        "meta_bstar": 0.0019126401,
        "meta_mean_motion_dot": 9.295e-05,
        "meta_mean_motion_ddot": 0,
        "tle_line1": "1 34680U 93036YA  25347.50562645  .00009295  00000+0  19126-2 0  9991",
        "tle_line2": "2 34680  74.0428 128.3944 0006660 225.9095 205.9692 14.60640869883397"
      },
      "geometry": {
        "type": "Point",
        "coordinates": [
          113.9356440274312,
          -38.303521315875024
        ]
      }
    },
    {
      "type": "Feature",
      "properties": {
        "norad_id": 34681,
        "name": "COSMOS 2251 DEB",
        "group": "cosmos-2251-debris",
        "lat": -47.50648968951597,
        "lon": -90.7395430035951,
        "alt_km": 610.5707658734163,
        "timestamp": "2025-12-14T05:42:18.857550+00:00",
        "meta_object_name": "COSMOS 2251 DEB",
        "meta_object_id": "1993-036YB",
        "meta_epoch": "2025-12-13T06:11:30.606432",
        "meta_mean_motion": 14.83242328,
        "meta_eccentricity": 0.00255814,
        "meta_inclination": 74.062,
        "meta_ra_of_asc_node": 289.3719,
        "meta_arg_of_pericenter": 345.9986,
        "meta_mean_anomaly": 134.8905,
        "meta_ephemeris_type": 0,
        "meta_classification_type": "U",
        "meta_norad_cat_id": 34681,
        "meta_element_set_no": 999,
        "meta_rev_at_epoch": 89278,
        "meta_bstar": 0.0025054122,
        "meta_mean_motion_dot": 0.00020629,
        "meta_mean_motion_ddot": 0,
        "tle_line1": "1 34681U 93036YB  25347.25799313  .00020629  00000+0  25054-2 0  9999",
        "tle_line2": "2 34681  74.0620 289.3719 0025581 345.9986 134.8905 14.83242328892788"
      },
      "geometry": {
        "type": "Point",
        "coordinates": [
          -90.7395430035951,
          -47.50648968951597
        ]
      }
    },
    {
      "type": "Feature",
      "properties": {
        "norad_id": 34682,
        "name": "COSMOS 2251 DEB",
        "group": "cosmos-2251-debris",
        "lat": -62.11013506518884,
        "lon": 47.400984315939475,
        "alt_km": 701.3076868392509,
        "timestamp": "2025-12-14T05:42:18.857560+00:00",
        "meta_object_name": "COSMOS 2251 DEB",
        "meta_object_id": "1993-036YC",
        "meta_epoch": "2025-12-13T15:30:39.256416",
        "meta_mean_motion": 14.58906281,
        "meta_eccentricity": 0.00182977,
        "meta_inclination": 74.0396,
        "meta_ra_of_asc_node": 81.2611,
        "meta_arg_of_pericenter": 214.2114,
        "meta_mean_anomaly": 213.8435,
        "meta_ephemeris_type": 0,
        "meta_classification_type": "U",
        "meta_norad_cat_id": 34682,
        "meta_element_set_no": 999,
        "meta_rev_at_epoch": 88699,
        "meta_bstar": 0.0010110147,
        "meta_mean_motion_dot": 4.722e-05,
        "meta_mean_motion_ddot": 0,
        "tle_line1": "1 34682U 93036YC  25347.64628769  .00004722  00000+0  10110-2 0  9992",
        "tle_line2": "2 34682  74.0396  81.2611 0018297 214.2114 213.8435 14.58906281886995"
      },
      "geometry": {
        "type": "Point",
        "coordinates": [
          47.400984315939475,
          -62.11013506518884
        ]
      }
    },
    {
      "type": "Feature",
      "properties": {
        "norad_id": 34683,
        "name": "COSMOS 2251 DEB",
        "group": "cosmos-2251-debris",
        "lat": 60.15926551329652,
        "lon": -120.56310901115906,
        "alt_km": 672.0566776507176,
        "timestamp": "2025-12-14T05:42:18.857571+00:00",
        "meta_object_name": "COSMOS 2251 DEB",
        "meta_object_id": "1993-036YD",
        "meta_epoch": "2025-12-12T17:51:17.559936",
        "meta_mean_motion": 14.64490336,
        "meta_eccentricity": 0.00181927,
        "meta_inclination": 74.0284,
        "meta_ra_of_asc_node": 92.2588,
        "meta_arg_of_pericenter": 207.2076,
        "meta_mean_anomaly": 316.283,
        "meta_ephemeris_type": 0,
        "meta_classification_type": "U",
        "meta_norad_cat_id": 34683,
        "meta_element_set_no": 999,
        "meta_rev_at_epoch": 88348,
        "meta_bstar": 0.0019988967,
        "meta_mean_motion_dot": 0.00010602,
        "meta_mean_motion_ddot": 0,
        "tle_line1": "1 34683U 93036YD  25346.74395324  .00010602  00000+0  19989-2 0  9998",
        "tle_line2": "2 34683  74.0284  92.2588 0018192 207.2076 316.2830 14.64490336883484"
      },
      "geometry": {
        "type": "Point",
        "coordinates": [
          -120.56310901115906,
          60.15926551329652
        ]
      }
    },
    {
      "type": "Feature",
      "properties": {
        "norad_id": 34685,
        "name": "COSMOS 2251 DEB",
        "group": "cosmos-2251-debris",
        "lat": -46.32142986929887,
        "lon": -16.612861023789844,
        "alt_km": 698.1461243627882,
        "timestamp": "2025-12-14T05:42:18.857581+00:00",
        "meta_object_name": "COSMOS 2251 DEB",
        "meta_object_id": "1993-036YF",
        "meta_epoch": "2025-12-13T12:26:54.805632",
        "meta_mean_motion": 14.57521887,
        "meta_eccentricity": 0.00142891,
        "meta_inclination": 74.0289,
        "meta_ra_of_asc_node": 147.3014,
        "meta_arg_of_pericenter": 251.5417,
        "meta_mean_anomaly": 165.9586,
        "meta_ephemeris_type": 0,
        "meta_classification_type": "U",
        "meta_norad_cat_id": 34685,
        "meta_element_set_no": 999,
        "meta_rev_at_epoch": 88543,
        "meta_bstar": 0.0017495669,
        "meta_mean_motion_dot": 7.947e-05,
        "meta_mean_motion_ddot": 0,
        "tle_line1": "1 34685U 93036YF  25347.51868988  .00007947  00000+0  17496-2 0  9996",
        "tle_line2": "2 34685  74.0289 147.3014 0014289 251.5417 165.9586 14.57521887885433"
      },
      "geometry": {
        "type": "Point",
        "coordinates": [
          -16.612861023789844,
          -46.32142986929887
        ]
      }
    },
    {
      "type": "Feature",
      "properties": {
        "norad_id": 34689,
        "name": "COSMOS 2251 DEB",
        "group": "cosmos-2251-debris",
        "lat": 34.65420791138475,
        "lon": 29.433279054876486,
        "alt_km": 1010.9347335952516,
        "timestamp": "2025-12-14T05:42:18.857592+00:00",
        "meta_object_name": "COSMOS 2251 DEB",
        "meta_object_id": "1993-036YK",
        "meta_epoch": "2025-12-12T17:22:52.308192",
        "meta_mean_motion": 14.04454056,
        "meta_eccentricity": 0.02277466,
        "meta_inclination": 74.098,
        "meta_ra_of_asc_node": 223.4282,
        "meta_arg_of_pericenter": 292.3655,
        "meta_mean_anomaly": 123.3959,
        "meta_ephemeris_type": 0,
        "meta_classification_type": "U",
        "meta_norad_cat_id": 34689,
        "meta_element_set_no": 999,
        "meta_rev_at_epoch": 84341,
        "meta_bstar": 0.0050656064,
        "meta_mean_motion_dot": 0.00010166,
        "meta_mean_motion_ddot": 0,
        "tle_line1": "1 34689U 93036YK  25346.72421653  .00010166  00000+0  50656-2 0  9998",
        "tle_line2": "2 34689  74.0980 223.4282 0227746 292.3655 123.3959 14.04454056843418"
      },
      "geometry": {
        "type": "Point",
        "coordinates": [
          29.433279054876486,
          34.65420791138475
        ]
      }
    },
    {
      "type": "Feature",
      "properties": {
        "norad_id": 34721,
        "name": "COSMOS 2251 DEB",
        "group": "cosmos-2251-debris",
        "lat": 45.175777201956606,
        "lon": 126.78476587639595,
        "alt_km": 1002.8939592234447,
        "timestamp": "2025-12-14T05:42:18.857602+00:00",
        "meta_object_name": "COSMOS 2251 DEB",
        "meta_object_id": "1993-036YP",
        "meta_epoch": "2025-12-13T16:11:02.614848",
        "meta_mean_motion": 13.96859114,
        "meta_eccentricity": 0.02236284,
        "meta_inclination": 73.9239,
        "meta_ra_of_asc_node": 324.6279,
        "meta_arg_of_pericenter": 263.4211,
        "meta_mean_anomaly": 278.9268,
        "meta_ephemeris_type": 0,
        "meta_classification_type": "U",
        "meta_norad_cat_id": 34721,
        "meta_element_set_no": 999,
        "meta_rev_at_epoch": 85162,
        "meta_bstar": 0.0017815447,
        "meta_mean_motion_dot": 3.036e-05,
        "meta_mean_motion_ddot": 0,
        "tle_line1": "1 34721U 93036YP  25347.67433582  .00003036  00000+0  17815-2 0  9992",
        "tle_line2": "2 34721  73.9239 324.6279 0223628 263.4211 278.9268 13.96859114851628"
      },
      "geometry": {
        "type": "Point",
        "coordinates": [
          126.78476587639595,
          45.175777201956606
        ]
      }
    }
  ]
}